{"fetched_at":"2026-04-08T17:04:03Z","count":12288,"tles":[{"name":"LAGEOS 2","line1":"1 22195U 92070B   26079.09060082 -.00000009  00000+0  00000+0 0  9994","line2":"2 22195  52.6746 322.9737 0137714 148.3603   4.1735  6.47293426789650","category":"Other"}]}